STARLINK-1123           
1 44930U 20001S   23282.70761554  .00018815  00000+0  12789-2 0  9996
2 44930  53.0552 345.9927 0001855  76.1555 283.9640 15.06391353206915
STARLINK-1128           
1 44931U 20001T   23282.60759970  .00042239  00000+0  23444-2 0  9992
2 44931  53.0544 325.4306 0004138  47.6512 312.4829 15.13352356207943
STARLINK-1130 (DARKSAT) 
1 44932U 20001U   23282.56385276  .00017995  00000+0  12243-2 0  9998
2 44932  53.0563 346.6390 0001605  90.8504 269.2668 15.06386125208124
STARLINK-1144           
1 44933U 20001V   23282.45697642  .00024124  00000+0  16341-2 0  9995
2 44933  53.0556 347.1176 0001467  74.2819 285.8332 15.06371888208162
STARLINK-1071           
1 44934U 20001W   23282.40351132  .00018275  00000+0  12430-2 0  9997
2 44934  53.0550 327.3553 0001482 101.9666 258.1489 15.06387488207147
STARLINK-1079           
1 44937U 20001Z   23282.51409458  .00032181  00000+0  21704-2 0  9993
2 44937  53.0543 326.8600 0001528  94.4472 265.6692 15.06383788207161
STARLINK-1082           
1 44938U 20001AA  23282.61361311  .00025340  00000+0  17145-2 0  9993
2 44938  53.0552 326.4135 0001383  96.3832 263.7315 15.06387914207178
STARLINK-1083           
1 44939U 20001AB  23282.62098200  .00004352  00000+0  31089-3 0  9993
2 44939  53.0555 326.3806 0001538  92.0771 268.0394 15.06394577207171
STARLINK-1091           
1 44940U 20001AC  23282.56569361  .00032211  00000+0  21723-2 0  9997
2 44940  53.0544 326.6299 0001474  77.8605 282.2549 15.06385432207165
STARLINK-1094           
1 44941U 20001AD  23283.11858882  .00025904  00000+0  17510-2 0  9999
2 44941  53.0547 324.1456 0001561  94.5528 265.5640 15.06411171207250
STARLINK-1096           
1 44942U 20001AE  23282.74761011  .00017440  00000+0  74025-3 0  9996
2 44942  53.0191 294.0401 0000510 205.4720 154.6251 15.23188930207654
STARLINK-1100           
1 44943U 20001AF  23282.55095024  .00024144  00000+0  16349-2 0  9993
2 44943  53.0562 326.6927 0001440  98.0092 262.1060 15.06384852207164
STARLINK-1108           
1 44944U 20001AG  23283.12964321  .00023204  00000+0  15710-2 0  9990
2 44944  53.0569 324.0946 0001762 104.2858 255.8327 15.06412802207254
STARLINK-1109           
1 44945U 20001AH  23282.42932267  .00023022  00000+0  15597-2 0  9998
2 44945  53.0546 327.2421 0001470  93.8152 266.3005 15.06393492207140
STARLINK-1110           
1 44946U 20001AJ  23283.12713248  .00084312  00000+0  13034-2 0  9996
2 44946  53.0148 232.1962 0004686  71.5086 288.6432 15.53380979208492
STARLINK-1122           
1 44949U 20001AM  23282.54357672  .00032356  00000+0  21819-2 0  9990
2 44949  53.0553 326.7254 0001281  98.5744 261.5391 15.06387345207166
STARLINK-1126           
1 44951U 20001AP  23282.86549747  .00065097  00000+0  10490-2 0  9995
2 44951  53.0167 230.4359 0008690  78.0538 282.1444 15.52313965209788
STARLINK-1117           
1 44952U 20001AQ  23282.39245429  .00023235  00000+0  15744-2 0  9999
2 44952  53.0548 327.4043 0001487  94.3289 265.7870 15.06381564207147
STARLINK-1124           
1 44953U 20001AR  23283.07476304  .00001393  00000+0  12496-4 0  9998
2 44953  53.0552 304.3917 0000890  86.9369 273.1752 15.76742722208800
STARLINK-1066           
1 44954U 20001AS  23282.35744219  .00027432  00000+0  18539-2 0  9996
2 44954  53.0539 307.5642 0001518  92.3044 267.8118 15.06388577207368
STARLINK-1069           
1 44955U 20001AT  23282.73025037  .00013233  00000+0  84666-4 0  9999
2 44955  53.0492 289.8526 0001383  92.7542 267.3636 15.76741835207645
STARLINK-1070           
1 44956U 20001AU  23283.13089676  .00019892  00000+0  12510-3 0  9999
2 44956  53.0457 258.0429 0001343  70.2413 289.8752 15.76753619208171
STARLINK-1076           
1 44959U 20001AX  23282.33532336  .00002341  00000+0  17602-3 0  9997
2 44959  53.0540 307.6625 0001460  93.1239 266.9917 15.06397155207413
STARLINK-1080           
1 44961U 20001AZ  23282.54173657  .00029150  00000+0  19681-2 0  9995
2 44961  53.0534 306.7368 0001560  94.6557 265.4610 15.06393620207454
STARLINK-1086           
1 44964U 20001BC  23283.00430431  .00021139  00000+0  13261-3 0  9994
2 44964  53.0540 286.5336 0000295 140.2833 219.8208 15.76763421207760
STARLINK-1088           
1 44966U 20001BE  23282.73739000  .00011988  00000+0  55834-3 0  9992
2 44966  53.0523 291.3245 0000399 281.7910  78.3040 15.20320267207687
STARLINK-1089           
1 44967U 20001BF  23283.07987635  .00027376  00000+0  18483-2 0  9996
2 44967  53.0546 304.3183 0001573 103.7487 256.3677 15.06426393207535
STARLINK-1090           
1 44968U 20001BG  23282.54542152  .00030424  00000+0  20530-2 0  9993
2 44968  53.0536 306.7203 0001324  99.1180 260.9958 15.06392828207455
STARLINK-1092           
1 44969U 20001BH  23282.47170445  .00021063  00000+0  14291-2 0  9994
2 44969  53.0539 307.0510 0001670  97.8178 262.3000 15.06390479207432
STARLINK-1093           
1 44970U 20001BJ  23282.38324149  .00027125  00000+0  18334-2 0  9995
2 44970  53.0541 307.4480 0001499  95.9308 264.1852 15.06389875207411
STARLINK-1107           
1 44972U 20001BL  23283.08356188  .00000431  00000+0  47814-4 0  9991
2 44972  53.0551 304.3005 0001366 101.8721 258.2421 15.06395099207536
STARLINK-1115           
1 44973U 20001BM  23282.46432989  .00029056  00000+0  19626-2 0  9999
2 44973  53.0539 307.0831 0001393  82.4582 277.6565 15.06379113207431
STARLINK-1132           
1 45044U 20006A   23283.10199367  .00034285  00000+0  23067-2 0  9990
2 45044  53.0534 264.2188 0001391  96.5093 263.6055 15.06443952204200
STARLINK-1120           
1 45045U 20006B   23282.42468948  .00027363  00000+0  18494-2 0  9996
2 45045  53.0532 287.2532 0001734  97.9223 262.1962 15.06386839203488
STARLINK-1131           
1 45047U 20006D   23282.49566619  .00027204  00000+0  18384-2 0  9991
2 45047  53.0536 286.9438 0001400  94.2875 265.8274 15.06394663203837
STARLINK-1134           
1 45048U 20006E   23282.30399388  .00021909  00000+0  14854-2 0  9993
2 45048  53.0536 287.8054 0001201  80.8757 279.2368 15.06394333203467
STARLINK-1135           
1 45049U 20006F   23283.12982470  .00019105  00000+0  75822-3 0  9993
2 45049  53.0857 245.1852 0003635 323.1470  36.9277 15.25391007204492
STARLINK-1140           
1 45050U 20006G   23283.04485341  .00013171  00000+0  90066-3 0  9995
2 45050  53.0544 284.4763 0001381  91.4393 268.6754 15.06433895203910
STARLINK-1148           
1 45052U 20006J   23283.05223534  .00001124  00000+0  94354-4 0  9992
2 45052  53.0561 284.4445 0001518  98.7186 261.3975 15.06400616203910
STARLINK-1155           
1 45053U 20006K   23282.52346353  .00026810  00000+0  72285-3 0  9996
2 45053  52.9872 212.7056 0003111 339.8602  20.2276 15.37637446204474
STARLINK-1156           
1 45054U 20006L   23282.71681693  .00021816  00000+0  14790-2 0  9994
2 45054  53.0537 285.9495 0001522 100.3239 259.7922 15.06398808203529
STARLINK-1159           
1 45057U 20006P   23283.06329360  .00000694  00000+0  65475-4 0  9995
2 45057  53.0536 284.3950 0001364  89.2174 270.8971 15.06401341203926
STARLINK-1162           
1 45058U 20006Q   23283.05592445  .00029861  00000+0  20140-2 0  9996
2 45058  53.0528 284.4280 0001376  96.1552 263.9594 15.06420198203920
STARLINK-1165           
1 45059U 20006R   23282.41456744  .00019789  00000+0  13445-2 0  9995
2 45059  53.0534 287.3084 0001294  99.9248 260.1887 15.06376296203488
STARLINK-1166           
1 45060U 20006S   23282.74262073  .00026159  00000+0  17681-2 0  9998
2 45060  53.0530 285.8353 0001403  94.7017 265.4132 15.06409717203539
STARLINK-1169           
1 45061U 20006T   23283.01539060  .00000444  00000+0  48719-4 0  9990
2 45061  53.0545 284.6093 0001372  90.3067 269.8079 15.06392117203911
STARLINK-1171           
1 45062U 20006U   23282.73524793  .00028315  00000+0  19121-2 0  9996
2 45062  53.0532 285.8680 0001578  95.7752 264.3417 15.06400911203537
STARLINK-1133           
1 45064U 20006W   23282.68180479  .00022994  00000+0  15570-2 0  9992
2 45064  53.0531 266.1065 0001355  98.1652 261.9490 15.06411925203807
STARLINK-1139           
1 45065U 20006X   23282.67095616  .00047752  00000+0  24650-2 0  9998
2 45065  53.0528 260.4319 0005378  80.2291 279.9309 15.15866504203886
STARLINK-1145           
1 45066U 20006Y   23282.65968691  .00029616  00000+0  19978-2 0  9995
2 45066  53.0538 266.2062 0001271 103.4185 256.6946 15.06418114203794
STARLINK-1150           
1 45067U 20006Z   23282.67443215  .00029205  00000+0  19713-2 0  9999
2 45067  53.0529 266.1398 0001437  95.4497 264.6656 15.06402853203808
STARLINK-1161           
1 45068U 20006AA  23282.64766137 -.00000242  00000+0  26729-5 0  9997
2 45068  53.0541 266.1222 0001375  94.1077 266.0069 15.06395509203791
STARLINK-1167           
1 45071U 20006AD  23283.10567463  .00022497  00000+0  15228-2 0  9998
2 45071  53.0546 264.2019 0001558 122.7993 237.3146 15.06437761204202
STARLINK-1168           
1 45072U 20006AE  23282.37955264  .00032997  00000+0  22240-2 0  9995
2 45072  53.0540 267.4629 0001368  82.2526 277.8618 15.06395807204094
STARLINK-1170           
1 45073U 20006AF  23282.67074288  .00000579  00000+0  57758-4 0  9992
2 45073  53.0545 266.1555 0001451  92.3628 267.7528 15.06393035203797
STARLINK-1172           
1 45074U 20006AG  23283.12041733  .00028960  00000+0  19527-2 0  9997
2 45074  53.0525 264.1386 0001136 103.9991 256.1125 15.06446518204205
STARLINK-1174           
1 45075U 20006AH  23283.21993301  .00031723  00000+0  21361-2 0  9995
2 45075  53.0531 263.6901 0001557  90.9905 269.1262 15.06450019204237
STARLINK-1180           
1 45076U 20006AJ  23282.69560009  .00017925  00000+0  12191-2 0  9991
2 45076  53.0548 266.0331 0001868 105.6307 254.4889 15.06403649203806
STARLINK-1177           
1 45078U 20006AL  23283.11303921  .00003365  00000+0  24457-3 0  9991
2 45078  53.0541 264.1666 0001477  95.4688 264.6469 15.06417237203855
